{"spaceTrack"{"CCSDS_OMM_VERS":"2.0","COMMENT":"GENERATED VIA SPACE-TRACK.ORG API","CREATION_DATE":"2021-01-21T06:26:10","ORIGINATOR":"18 SPCS","OBJECT_NAME":"STARLINK-1390","OBJECT_ID":"2020-025V","CENTER_NAME":"EARTH","REF_FRAME":"TEME","TIME_SYSTEM":"UTC","MEAN_ELEMENT_THEORY":"SGP4","EPOCH":"2021-01-21T06:26:10","MEAN_MOTION":15.06420224,"ECCENTRICITY":0.0000134,"INCLINATION":53.041,"RA_OF_ASC_NODE":213.2057,"ARG_OF_PERICENTER":85.4796,"MEAN_ANOMALY":274.6208,"EPHEMERIS_TYPE":0,"CLASSIFICATION_TYPE":"U","NORAD_CAT_ID":45550,"ELEMENT_SET_NO":999,"REV_AT_EPOCH":4350,"BSTAR":-0.00012193,"MEAN_MOTION_DOT":-0.00002098,"MEAN_MOTION_DDOT":0,"SEMIMAJOR_AXIS":6925.287,"PERIOD":95.591,"APOAPSIS":547.244,"PERIAPSIS":547.059,"OBJECT_TYPE":"PAYLOAD","RCS_SIZE":"LARGE","COUNTRY_CODE":"US","LAUNCH_DATE":"2020-04-22","SITE":"AFETR","DECAY_DATE":null,"DECAYED":0,"FILE":2940260,"GP_ID":170412356,"TLE_LINE0":"0 STARLINK-1390","TLE_LINE1":"1 45550U 20025V   21026.50408843 -.00002098  00000-0 -12193-3 0  9991","TLE_LINE2":"2 45550  53.0410 213.2057 0000134  85.4796 274.6208 15.06420224 43508"},"version":"v1.0","launch":"5eb87d44ffd86e000604b386","longitude":77,"latitude":51.6756787038523,"height_km":553.2782718500903,"velocity_kms":7.591396142263102,"id":"5eed7715096e5900069857a5"}
{"spaceTrack"{"CCSDS_OMM_VERS":"2.0","COMMENT":"GENERATED VIA SPACE-TRACK.ORG API","CREATION_DATE":"2021-01-21T06:26:10","ORIGINATOR":"18 SPCS","OBJECT_NAME":"STARLINK-1377","OBJECT_ID":"2020-025S","CENTER_NAME":"EARTH","REF_FRAME":"TEME","TIME_SYSTEM":"UTC","MEAN_ELEMENT_THEORY":"SGP4","EPOCH":"2021-01-21T06:26:10","MEAN_MOTION":15.06377934,"ECCENTRICITY":0.0001092,"INCLINATION":53.0447,"RA_OF_ASC_NODE":213.1005,"ARG_OF_PERICENTER":76.1459,"MEAN_ANOMALY":283.9651,"EPHEMERIS_TYPE":0,"CLASSIFICATION_TYPE":"U","NORAD_CAT_ID":45547,"ELEMENT_SET_NO":999,"REV_AT_EPOCH":4352,"BSTAR":0.00019531,"MEAN_MOTION_DOT":0.00002627,"MEAN_MOTION_DDOT":0,"SEMIMAJOR_AXIS":6925.416,"PERIOD":95.594,"APOAPSIS":548.037,"PERIAPSIS":546.525,"OBJECT_TYPE":"PAYLOAD","RCS_SIZE":"LARGE","COUNTRY_CODE":"US","LAUNCH_DATE":"2020-04-22","SITE":"AFETR","DECAY_DATE":null,"DECAYED":0,"FILE":2940260,"GP_ID":170413048,"TLE_LINE0":"0 STARLINK-1377","TLE_LINE1":"1 45547U 20025S   21026.52717793  .00002627  00000-0  19531-3 0  9995","TLE_LINE2":"2 45547  53.0447 213.1005 0001092  76.1459 283.9651 15.06377934 43529"},"version":"v1.0","launch":"5eb87d44ffd86e000604b386","longitude":10,"latitude":-35.73665479274721,"height_km":559.0948949240283,"velocity_kms":7.581527772546666,"id":"5eed7715096e5900069857a6"}
{"spaceTrack"{"CCSDS_OMM_VERS":"2.0","COMMENT":"GENERATED VIA SPACE-TRACK.ORG API","CREATION_DATE":"2021-01-21T06:26:10","ORIGINATOR":"18 SPCS","OBJECT_NAME":"STARLINK-1344","OBJECT_ID":"2020-025AE","CENTER_NAME":"EARTH","REF_FRAME":"TEME","TIME_SYSTEM":"UTC","MEAN_ELEMENT_THEORY":"SGP4","EPOCH":"2021-01-21T06:26:10","MEAN_MOTION":15.05576785,"ECCENTRICITY":0.000251,"INCLINATION":52.9993,"RA_OF_ASC_NODE":192.8478,"ARG_OF_PERICENTER":99.3259,"MEAN_ANOMALY":260.8013,"EPHEMERIS_TYPE":0,"CLASSIFICATION_TYPE":"U","NORAD_CAT_ID":45559,"ELEMENT_SET_NO":999,"REV_AT_EPOCH":4320,"BSTAR":-0.000067591,"MEAN_MOTION_DOT":-0.00001264,"MEAN_MOTION_DDOT":0,"SEMIMAJOR_AXIS":6927.873,"PERIOD":95.644,"APOAPSIS":551.477,"PERIAPSIS":547.999,"OBJECT_TYPE":"PAYLOAD","RCS_SIZE":"LARGE","COUNTRY_CODE":"US","LAUNCH_DATE":"2020-04-22","SITE":"AFETR","DECAY_DATE":null,"DECAYED":0,"FILE":2940346,"GP_ID":170437773,"TLE_LINE0":"0 STARLINK-1344","TLE_LINE1":"1 45559U 20025AE  21026.58844823 -.00001264  00000-0 -67591-4 0  9997","TLE_LINE2":"2 45559  52.9993 192.8478 0002510  99.3259 260.8013 15.05576785 43209"},"version":"v1.0","launch":"5eb87d44ffd86e000604b386","longitude":171,"latitude":-16.47982032598391,"height_km":555.0677794454114,"velocity_kms":7.583916347562731,"id":"5eed7716096e5900069857a7"}
{"spaceTrack"{"CCSDS_OMM_VERS":"2.0","COMMENT":"GENERATED VIA SPACE-TRACK.ORG API","CREATION_DATE":"2021-01-21T06:26:10","ORIGINATOR":"18 SPCS","OBJECT_NAME":"STARLINK-1358","OBJECT_ID":"2020-025AM","CENTER_NAME":"EARTH","REF_FRAME":"TEME","TIME_SYSTEM":"UTC","MEAN_ELEMENT_THEORY":"SGP4","EPOCH":"2021-01-21T06:26:10","MEAN_MOTION":15.05583151,"ECCENTRICITY":0.0002349,"INCLINATION":53.0008,"RA_OF_ASC_NODE":193.0491,"ARG_OF_PERICENTER":92.0046,"MEAN_ANOMALY":268.1211,"EPHEMERIS_TYPE":0,"CLASSIFICATION_TYPE":"U","NORAD_CAT_ID":45566,"ELEMENT_SET_NO":999,"REV_AT_EPOCH":4379,"BSTAR":0.000032884,"MEAN_MOTION_DOT":0.00000199,"MEAN_MOTION_DDOT":0,"SEMIMAJOR_AXIS":6927.853,"PERIOD":95.644,"APOAPSIS":551.346,"PERIAPSIS":548.091,"OBJECT_TYPE":"PAYLOAD","RCS_SIZE":"LARGE","COUNTRY_CODE":"US","LAUNCH_DATE":"2020-04-22","SITE":"AFETR","DECAY_DATE":null,"DECAYED":0,"FILE":2940260,"GP_ID":170412358,"TLE_LINE0":"0 STARLINK-1358","TLE_LINE1":"1 45566U 20025AM  21026.54530384  .00000199  00000-0  32884-4 0  9996","TLE_LINE2":"2 45566  53.0008 193.0491 0002349  92.0046 268.1211 15.05583151 43798"},"version":"v1.0","launch":"5eb87d44ffd86e000604b386","longitude":39,"latitude":-26.301995464084744,"height_km":558.2470150342424,"velocity_kms":7.581921344423864,"id":"5eed7716096e5900069857a8"}
{"spaceTrack"{"CCSDS_OMM_VERS":"2.0","COMMENT":"GENERATED VIA SPACE-TRACK.ORG API","CREATION_DATE":"2021-01-21T06:26:10","ORIGINATOR":"18 SPCS","OBJECT_NAME":"STARLINK-1326","OBJECT_ID":"2020-025AW","CENTER_NAME":"EARTH","REF_FRAME":"TEME","TIME_SYSTEM":"UTC","MEAN_ELEMENT_THEORY":"SGP4","EPOCH":"2021-01-21T06:26:10","MEAN_MOTION":15.06404572,"ECCENTRICITY":0.0001937,"INCLINATION":53.0003,"RA_OF_ASC_NODE":182.6688,"ARG_OF_PERICENTER":100.8295,"MEAN_ANOMALY":259.2911,"EPHEMERIS_TYPE":0,"CLASSIFICATION_TYPE":"U","NORAD_CAT_ID":45575,"ELEMENT_SET_NO":999,"REV_AT_EPOCH":4395,"BSTAR":0.00028337,"MEAN_MOTION_DOT":0.00003942,"MEAN_MOTION_DDOT":0,"SEMIMAJOR_AXIS":6925.335,"PERIOD":95.592,"APOAPSIS":548.541,"PERIAPSIS":545.858,"OBJECT_TYPE":"PAYLOAD","RCS_SIZE":"LARGE","COUNTRY_CODE":"US","LAUNCH_DATE":"2020-04-22","SITE":"AFETR","DECAY_DATE":null,"DECAYED":0,"FILE":2940260,"GP_ID":170412554,"TLE_LINE0":"0 STARLINK-1326","TLE_LINE1":"1 45575U 20025AW  21026.54666057  .00003942  00000-0  28337-3 0  9999","TLE_LINE2":"2 45575  53.0003 182.6688 0001937 100.8295 259.2911 15.06404572 43957"},"version":"v1.0","launch":"5eb87d44ffd86e000604b386","longitude":168,"latitude":-21.94676749454421,"height_km":553.7178866212298,"velocity_kms":7.584762804556671,"id":"5eed7716096e5900069857a9"}
{"spaceTrack"{"CCSDS_OMM_VERS":"2.0","COMMENT":"GENERATED VIA SPACE-TRACK.ORG API","CREATION_DATE":"2021-01-21T06:26:10","ORIGINATOR":"18 SPCS","OBJECT_NAME":"STARLINK-1334","OBJECT_ID":"2020-025AB","CENTER_NAME":"EARTH","REF_FRAME":"TEME","TIME_SYSTEM":"UTC","MEAN_ELEMENT_THEORY":"SGP4","EPOCH":"2021-01-21T06:26:10","MEAN_MOTION":15.05575588,"ECCENTRICITY":0.0002069,"INCLINATION":53.0009,"RA_OF_ASC_NODE":192.8937,"ARG_OF_PERICENTER":98.2532,"MEAN_ANOMALY":261.8691,"EPHEMERIS_TYPE":0,"CLASSIFICATION_TYPE":"U","NORAD_CAT_ID":45556,"ELEMENT_SET_NO":999,"REV_AT_EPOCH":4320,"BSTAR":0.000084864,"MEAN_MOTION_DOT":0.00000957,"MEAN_MOTION_DDOT":0,"SEMIMAJOR_AXIS":6927.876,"PERIOD":95.644,"APOAPSIS":551.175,"PERIAPSIS":548.308,"OBJECT_TYPE":"PAYLOAD","RCS_SIZE":"LARGE","COUNTRY_CODE":"US","LAUNCH_DATE":"2020-04-22","SITE":"AFETR","DECAY_DATE":null,"DECAYED":0,"FILE":2940339,"GP_ID":170437224,"TLE_LINE0":"0 STARLINK-1334","TLE_LINE1":"1 45556U 20025AB  21026.57848964  .00000957  00000-0  84864-4 0  9991","TLE_LINE2":"2 45556  53.0009 192.8937 0002069  98.2532 261.8691 15.05575588 43200"},"version":"v1.0","launch":"5eb87d44ffd86e000604b386","longitude":29,"latitude":26.246856526496884,"height_km":550.2828065822132,"velocity_kms":7.590646679513977,"id":"5eed7716096e5900069857aa"}
{"spaceTrack"{"CCSDS_OMM_VERS":"2.0","COMMENT":"GENERATED VIA SPACE-TRACK.ORG API","CREATION_DATE":"2021-01-21T06:26:10","ORIGINATOR":"18 SPCS","OBJECT_NAME":"STARLINK-1376","OBJECT_ID":"2020-025AR","CENTER_NAME":"EARTH","REF_FRAME":"TEME","TIME_SYSTEM":"UTC","MEAN_ELEMENT_THEORY":"SGP4","EPOCH":"2021-01-21T06:26:10","MEAN_MOTION":15.05896957,"ECCENTRICITY":0.0001885,"INCLINATION":52.9995,"RA_OF_ASC_NODE":192.9779,"ARG_OF_PERICENTER":117.3224,"MEAN_ANOMALY":242.7956,"EPHEMERIS_TYPE":0,"CLASSIFICATION_TYPE":"U","NORAD_CAT_ID":45570,"ELEMENT_SET_NO":999,"REV_AT_EPOCH":4319,"BSTAR":0.0026826,"MEAN_MOTION_DOT":0.00039361,"MEAN_MOTION_DDOT":0,"SEMIMAJOR_AXIS":6926.891,"PERIOD":95.624,"APOAPSIS":550.061,"PERIAPSIS":547.45,"OBJECT_TYPE":"PAYLOAD","RCS_SIZE":"LARGE","COUNTRY_CODE":"US","LAUNCH_DATE":"2020-04-22","SITE":"AFETR","DECAY_DATE":null,"DECAYED":0,"FILE":2940425,"GP_ID":170440016,"TLE_LINE0":"0 STARLINK-1376","TLE_LINE1":"1 45570U 20025AR  21026.55825884  .00039361  00000-0  26826-2 0  9994","TLE_LINE2":"2 45570  52.9995 192.9779 0001885 117.3224 242.7956 15.05896957 43195"},"version":"v1.0","launch":"5eb87d44ffd86e000604b386","longitude":0,"latitude":28.324120446728,"height_km":548.8966582943967,"velocity_kms":7.59195427919901,"id":"5eed7716096e5900069857ab"}
